NORAD_CAT_ID,OBJECT_NAME,OBJECT_TYPE,EPOCH,MEAN_MOTION,ECCENTRICITY,INCLINATION,RA_OF_ASC_NODE,ARG_OF_PERICENTER,MEAN_ANOMALY,BSTAR,MEAN_MOTION_DOT,MEAN_MOTION_DDOT,TLE_LINE0,TLE_LINE1,TLE_LINE2,SEMIMAJOR_AXIS,PERIOD,APOGEE,PERIGEE,DECAYED
53537.0,STARLINK-4120,PAYLOAD,2023-08-27 08:31:27,15.0884114,0.0001358,53.2168,268.0799,85.1512,274.9635,4.244e-05,3.88e-06,0.0,0 STARLINK-4120,1 53537U 22101L   23239.35517846  .00000388  00000-0  42440-4 0  9994,2 53537  53.2168 268.0799 0001358  85.1512 274.9635 15.08841140 56470,6917.877,95.437,540.681,538.802,0.0
53537.0,STARLINK-4120,PAYLOAD,2023-08-28 08:22:14,15.08840657,0.0001414,53.2172,263.6196,95.1592,264.9561,5.1162e-05,5.26e-06,0.0,0 STARLINK-4120,1 53537U 22101L   23240.34877784  .00000526  00000-0  51162-4 0  9990,2 53537  53.2172 263.6196 0001414  95.1592 264.9561 15.08840657 56625,6917.878,95.438,540.722,538.765,0.0
53537.0,STARLINK-4120,PAYLOAD,2023-08-29 01:51:29,15.08836584,0.0001403,53.217,260.3483,95.0968,265.0184,2.8533e-05,1.66e-06,0.0,0 STARLINK-4120,1 53537U 22101L   23241.07742148  .00000166  00000-0  28533-4 0  9992,2 53537  53.2170 260.3483 0001403  95.0968 265.0184 15.08836584 56739,6917.891,95.438,540.726,538.785,0.0
53537.0,STARLINK-4120,PAYLOAD,2023-08-29 08:13:01,15.0883739,0.0001448,53.2177,259.1601,94.4881,265.6277,3.7111e-05,3.03e-06,0.0,0 STARLINK-4120,1 53537U 22101L   23241.34238148  .00000303  00000-0  37111-4 0  9997,2 53537  53.2177 259.1601 0001448  94.4881 265.6277 15.08837390 56779,6917.888,95.438,540.755,538.752,0.0
53537.0,STARLINK-4120,PAYLOAD,2023-08-30 06:28:25,15.08839271,0.0001364,53.2169,254.9965,92.1429,267.9719,3.7614e-05,3.11e-06,0.0,0 STARLINK-4120,1 53537U 22101L   23242.26974176  .00000311  00000-0  37614-4 0  9994,2 53537  53.2169 254.9965 0001364  92.1429 267.9719 15.08839271 56918,6917.883,95.438,540.691,538.804,0.0
53537.0,STARLINK-4120,PAYLOAD,2023-08-30 17:36:07,15.08837393,0.0001358,53.2169,252.9151,92.2506,267.8642,2.763e-05,1.52e-06,0.0,0 STARLINK-4120,1 53537U 22101L   23242.73342372  .00000152  00000-0  27630-4 0  9993,2 53537  53.2169 252.9151 0001358  92.2506 267.8642 15.08837393 56987,6917.888,95.438,540.693,538.814,0.0
53537.0,STARLINK-4120,PAYLOAD,2023-08-31 09:29:59,15.08836445,0.0001498,53.2174,249.9407,93.2782,266.8381,4.7494e-05,4.68e-06,0.0,0 STARLINK-4120,1 53537U 22101L   23243.39582574  .00000468  00000-0  47494-4 0  9996,2 53537  53.2174 249.9407 0001498  93.2782 266.8381 15.08836445 57083,6917.891,95.438,540.793,538.72,0.0
53537.0,STARLINK-4120,PAYLOAD,2023-09-01 01:23:50,15.08850235,0.0002056,53.2182,246.9724,99.8134,260.309,-0.00013398,-2.421e-05,0.0,0 STARLINK-4120,1 53537U 22101L   23244.05822528 -.00002421  00000-0 -13398-3 0  9994,2 53537  53.2182 246.9724 0002056  99.8134 260.3090 15.08850235 57185,6917.849,95.437,541.136,538.292,0.0
53537.0,STARLINK-4120,PAYLOAD,2023-09-01 17:17:44,15.08792259,0.0001235,53.2166,243.9978,117.8996,242.2121,0.00022778,3.334e-05,0.0,0 STARLINK-4120,1 53537U 22101L   23244.72064993  .00003334  00000-0  22778-3 0  9996,2 53537  53.2166 243.9978 0001235 117.8996 242.2121 15.08792259 57286,6918.026,95.441,540.746,539.037,0.0
53537.0,STARLINK-4120,PAYLOAD,2023-09-02 01:14:38,15.08815156,7.64e-05,53.2176,242.5084,86.2992,273.8087,0.0001745,2.489e-05,0.0,0 STARLINK-4120,1 53537U 22101L   23245.05183670  .00002489  00000-0  17450-3 0  9998,2 53537  53.2176 242.5084 0000764  86.2992 273.8087 15.08815156 57330,6917.956,95.439,540.35,539.293,0.0
53537.0,STARLINK-4120,PAYLOAD,2023-09-02 06:00:45,15.08867728,1.01e-05,53.2161,241.6142,150.9178,209.1819,-0.00028111,-4.762e-05,0.0,0 STARLINK-4120,1 53537U 22101L   23245.25052866 -.00004762  00000-0 -28111-3 0  9996,2 53537  53.2161 241.6142 0000101 150.9178 209.1819 15.08867728 57369,6917.796,95.436,539.731,539.591,0.0
53537.0,STARLINK-4120,PAYLOAD,2023-09-02 17:08:28,15.08842775,0.0001265,53.2145,239.5312,94.8763,265.2374,8.5579e-05,1.074e-05,0.0,0 STARLINK-4120,1 53537U 22101L   23245.71422066  .00001074  00000-0  85579-4 0  9993,2 53537  53.2145 239.5312 0001265  94.8763 265.2374 15.08842775 57436,6917.872,95.437,540.612,538.862,0.0
53537.0,STARLINK-4120,PAYLOAD,2023-09-03 09:02:20,15.08840761,0.0001396,53.2154,236.5582,93.0711,267.0441,2.9139e-05,1.76e-06,0.0,0 STARLINK-4120,1 53537U 22101L   23246.37662453  .00000176  00000-0  29139-4 0  9994,2 53537  53.2154 236.5582 0001396  93.0711 267.0441 15.08840761 57530,6917.878,95.438,540.709,538.777,0.0
53537.0,STARLINK-4120,PAYLOAD,2023-09-03 16:59:16,15.0883897,0.0001399,53.2153,235.0713,93.0444,267.0709,-6.1728e-07,-2.98e-06,0.0,0 STARLINK-4120,1 53537U 22101L   23246.70782640 -.00000298  00000-0 -61728-6 0  9991,2 53537  53.2153 235.0713 0001399  93.0444 267.0709 15.08838970 57586,6917.884,95.438,540.716,538.781,0.0
53537.0,STARLINK-4120,PAYLOAD,2023-09-04 08:53:07,15.08838494,0.0001452,53.2162,232.0969,98.8181,261.2975,-2.0082e-05,-6.08e-06,0.0,0 STARLINK-4120,1 53537U 22101L   23247.37022784 -.00000608  00000-0 -20082-4 0  9992,2 53537  53.2162 232.0969 0001452  98.8181 261.2975 15.08838494 57680,6917.885,95.438,540.754,538.746,0.0
53537.0,STARLINK-4120,PAYLOAD,2023-09-04 23:11:36,15.08834888,0.0001419,53.217,229.4202,99.9973,260.1179,2.784e-05,1.55e-06,0.0,0 STARLINK-4120,1 53537U 22101L   23247.96638954  .00000155  00000-0  27840-4 0  9993,2 53537  53.2170 229.4202 0001419  99.9973 260.1179 15.08834888 57770,6917.896,95.438,540.743,538.779,0.0
53537.0,STARLINK-4120,PAYLOAD,2023-09-05 08:43:54,15.08838556,0.0001377,53.2165,227.6376,94.8177,265.2973,4.7601e-05,4.7e-06,0.0,0 STARLINK-4120,1 53537U 22101L   23248.36382780  .00000470  00000-0  47601-4 0  9998,2 53537  53.2165 227.6376 0001377  94.8177 265.2973 15.08838556 57830,6917.885,95.438,540.702,538.797,0.0
53537.0,STARLINK-4120,PAYLOAD,2023-09-06 02:13:09,15.0883606,0.0001312,53.2166,224.3672,94.3711,265.7431,6.771e-05,7.9e-06,0.0,0 STARLINK-4120,1 53537U 22101L   23249.09246999  .00000790  00000-0  67710-4 0  9998,2 53537  53.2166 224.3672 0001312  94.3711 265.7431 15.08836060 57946,6917.892,95.438,540.665,538.85,0.0
53537.0,STARLINK-4120,PAYLOAD,2023-09-06 05:23:55,15.08839958,0.0001309,53.2165,223.7726,94.2543,265.8598,9.8635e-05,1.282e-05,0.0,0 STARLINK-4120,1 53537U 22101L   23249.22494727  .00001282  00000-0  98635-4 0  9994,2 53537  53.2165 223.7726 0001309  94.2543 265.8598 15.08839958 57962,6917.881,95.438,540.651,538.84,0.0
53537.0,STARLINK-4120,PAYLOAD,2023-09-07 06:50:06,15.08836749,0.0001286,53.2169,219.015,91.2703,268.8437,1.5408e-05,-4.3e-07,0.0,0 STARLINK-4120,1 53537U 22101L   23250.28479446 -.00000043  00000-0  15408-4 0  9995,2 53537  53.2169 219.0150 0001286  91.2703 268.8437 15.08836749 58123,6917.89,95.438,540.645,538.866,0.0
53537.0,STARLINK-4120,PAYLOAD,2023-09-08 05:05:29,15.08845108,0.0001251,53.2166,214.8522,90.6982,269.4153,6.4222e-05,7.34e-06,0.0,0 STARLINK-4120,1 53537U 22101L   23251.21214844  .00000734  00000-0  64222-4 0  9992,2 53537  53.2166 214.8522 0001251  90.6982 269.4153 15.08845108 58266,6917.865,95.437,540.595,538.864,0.0
53537.0,STARLINK-4120,PAYLOAD,2023-09-08 20:59:21,15.08851443,0.0001472,53.2166,211.8811,74.1162,285.9992,-0.00012239,-2.236e-05,0.0,0 STARLINK-4120,1 53537U 22101L   23251.87455426 -.00002236  00000-0 -12239-3 0  9998,2 53537  53.2166 211.8811 0001472  74.1162 285.9992 15.08851443 58360,6917.845,95.437,540.729,538.692,0.0
53537.0,STARLINK-4120,PAYLOAD,2023-09-09 01:45:31,15.08836311,0.0001446,53.2179,210.986,78.7003,281.4152,3.9544e-05,3.41e-06,0.0,0 STARLINK-4120,1 53537U 22101L   23252.07327708  .00000341  00000-0  39544-4 0  9994,2 53537  53.2179 210.9860 0001446  78.7003 281.4152 15.08836311 58392,6917.892,95.438,540.757,538.756,0.0
53537.0,STARLINK-4120,PAYLOAD,2023-09-09 06:31:40,15.08838691,0.000146,53.2177,210.0936,85.1197,274.9961,5.3504e-05,5.64e-06,0.0,0 STARLINK-4120,1 53537U 22101L   23252.27199482  .00000564  00000-0  53504-4 0  9991,2 53537  53.2177 210.0936 0001460  85.1197 274.9961 15.08838691 58429,6917.884,95.438,540.759,538.739,0.0
53537.0,STARLINK-4120,PAYLOAD,2023-09-10 06:22:27,15.08842903,0.0001365,53.2174,205.6324,87.1869,272.928,6.3239e-05,7.19e-06,0.0,0 STARLINK-4120,1 53537U 22101L   23253.26559314  .00000719  00000-0  63239-4 0  9993,2 53537  53.2174 205.6324 0001365  87.1869 272.9280 15.08842903 58578,6917.872,95.437,540.681,538.792,0.0
53537.0,STARLINK-4120,PAYLOAD,2023-09-11 14:10:10,15.08841672,0.0001516,53.2171,199.6863,82.9423,277.1741,3.7521e-05,3.09e-06,0.0,0 STARLINK-4120,1 53537U 22101L   23254.59039585  .00000309  00000-0  37521-4 0  9993,2 53537  53.2171 199.6863 0001516  82.9423 277.1741 15.08841672 58775,6917.875,95.437,540.789,538.692,0.0
53537.0,STARLINK-4120,PAYLOAD,2023-09-12 06:04:01,15.08845766,0.0001552,53.2162,196.7125,82.7805,277.3363,4.9306e-05,4.97e-06,0.0,0 STARLINK-4120,1 53537U 22101L   23255.25279228  .00000497  00000-0  49306-4 0  9999,2 53537  53.2162 196.7125 0001552  82.7805 277.3363 15.08845766 58877,6917.863,95.437,540.801,538.654,0.0
53537.0,STARLINK-4120,PAYLOAD,2023-09-13 01:08:39,15.08841254,0.0001364,53.2173,193.1429,86.05,274.0648,-8.4828e-06,-4.23e-06,0.0,0 STARLINK-4120,1 53537U 22101L   23256.04767680 -.00000423  00000-0 -84828-5 0  9991,2 53537  53.2173 193.1429 0001364  86.0500 274.0648 15.08841254 58998,6917.877,95.437,540.685,538.798,0.0
53537.0,STARLINK-4120,PAYLOAD,2023-09-14 02:34:49,15.08847158,0.0001397,53.2184,188.3866,107.1505,252.9641,-5.4448e-05,-1.155e-05,0.0,0 STARLINK-4120,1 53537U 22101L   23257.10751388 -.00001155  00000-0 -54448-4 0  9994,2 53537  53.2184 188.3866 0001397 107.1505 252.9641 15.08847158 59153,6917.859,95.437,540.69,538.757,0.0
53537.0,STARLINK-4120,PAYLOAD,2023-09-14 04:10:12,15.08851368,0.0001413,53.2186,188.0922,89.5317,270.5837,-7.3431e-05,-1.457e-05,0.0,0 STARLINK-4120,1 53537U 22101L   23257.17375322 -.00001457  00000-0 -73431-4 0  9999,2 53537  53.2186 188.0922 0001413  89.5317 270.5837 15.08851368 59160,6917.846,95.437,540.688,538.733,0.0
